<?xml version="1.0" encoding="UTF-8"?>
<ndm xmlns:xsi="http://www.w3.org/2001/XMLSchema-instance" xsi:noNamespaceSchemaLocation="https://sanaregistry.org/r/ndmxml_unqualified/ndmxml-2.0.0-master-2.0.xsd">
<omm id="CCSDS_OMM_VERS" version="2.0">
<header><CREATION_DATE/><ORIGINATOR/></header><body><segment><metadata><OBJECT_NAME>KUIPER-00104</OBJECT_NAME><OBJECT_ID>2025-171L</OBJECT_ID><CENTER_NAME>EARTH</CENTER_NAME><REF_FRAME>TEME</REF_FRAME><TIME_SYSTEM>UTC</TIME_SYSTEM><MEAN_ELEMENT_THEORY>SGP4</MEAN_ELEMENT_THEORY></metadata><data><meanElements><EPOCH>2025-09-26T01:44:22.884576</EPOCH><MEAN_MOTION>15.36464874</MEAN_MOTION><ECCENTRICITY>.00033285</ECCENTRICITY><INCLINATION>51.8759</INCLINATION><RA_OF_ASC_NODE>184.9897</RA_OF_ASC_NODE><ARG_OF_PERICENTER>302.7060</ARG_OF_PERICENTER><MEAN_ANOMALY>57.3605</MEAN_ANOMALY></meanElements><tleParameters><EPHEMERIS_TYPE>0</EPHEMERIS_TYPE><CLASSIFICATION_TYPE>U</CLASSIFICATION_TYPE><NORAD_CAT_ID>65142</NORAD_CAT_ID><ELEMENT_SET_NO>999</ELEMENT_SET_NO><REV_AT_EPOCH>824</REV_AT_EPOCH><BSTAR>.83715899E-3</BSTAR><MEAN_MOTION_DOT>.29983E-3</MEAN_MOTION_DOT><MEAN_MOTION_DDOT>0</MEAN_MOTION_DDOT></tleParameters></data></segment></body></omm>
<omm id="CCSDS_OMM_VERS" version="2.0">
<header><CREATION_DATE/><ORIGINATOR/></header><body><segment><metadata><OBJECT_NAME>KUIPER-00105</OBJECT_NAME><OBJECT_ID>2025-171M</OBJECT_ID><CENTER_NAME>EARTH</CENTER_NAME><REF_FRAME>TEME</REF_FRAME><TIME_SYSTEM>UTC</TIME_SYSTEM><MEAN_ELEMENT_THEORY>SGP4</MEAN_ELEMENT_THEORY></metadata><data><meanElements><EPOCH>2025-09-26T06:00:02.999808</EPOCH><MEAN_MOTION>15.35292804</MEAN_MOTION><ECCENTRICITY>.0004647</ECCENTRICITY><INCLINATION>51.8755</INCLINATION><RA_OF_ASC_NODE>183.9465</RA_OF_ASC_NODE><ARG_OF_PERICENTER>279.7661</ARG_OF_PERICENTER><MEAN_ANOMALY>67.6680</MEAN_ANOMALY></meanElements><tleParameters><EPHEMERIS_TYPE>0</EPHEMERIS_TYPE><CLASSIFICATION_TYPE>U</CLASSIFICATION_TYPE><NORAD_CAT_ID>65143</NORAD_CAT_ID><ELEMENT_SET_NO>999</ELEMENT_SET_NO><REV_AT_EPOCH>528</REV_AT_EPOCH><BSTAR>-.8137241E-2</BSTAR><MEAN_MOTION_DOT>-.273658E-2</MEAN_MOTION_DOT><MEAN_MOTION_DDOT>0</MEAN_MOTION_DDOT></tleParameters></data></segment></body></omm>
<omm id="CCSDS_OMM_VERS" version="2.0">
<header><CREATION_DATE/><ORIGINATOR/></header><body><segment><metadata><OBJECT_NAME>KUIPER-00106</OBJECT_NAME><OBJECT_ID>2025-171N</OBJECT_ID><CENTER_NAME>EARTH</CENTER_NAME><REF_FRAME>TEME</REF_FRAME><TIME_SYSTEM>UTC</TIME_SYSTEM><MEAN_ELEMENT_THEORY>SGP4</MEAN_ELEMENT_THEORY></metadata><data><meanElements><EPOCH>2025-09-26T06:00:02.999808</EPOCH><MEAN_MOTION>15.24505873</MEAN_MOTION><ECCENTRICITY>.00057136</ECCENTRICITY><INCLINATION>51.8791</INCLINATION><RA_OF_ASC_NODE>184.5551</RA_OF_ASC_NODE><ARG_OF_PERICENTER>285.1728</ARG_OF_PERICENTER><MEAN_ANOMALY>97.8002</MEAN_ANOMALY></meanElements><tleParameters><EPHEMERIS_TYPE>0</EPHEMERIS_TYPE><CLASSIFICATION_TYPE>U</CLASSIFICATION_TYPE><NORAD_CAT_ID>65144</NORAD_CAT_ID><ELEMENT_SET_NO>999</ELEMENT_SET_NO><REV_AT_EPOCH>465</REV_AT_EPOCH><BSTAR>-.15453161E-1</BSTAR><MEAN_MOTION_DOT>-.367281E-2</MEAN_MOTION_DOT><MEAN_MOTION_DDOT>0</MEAN_MOTION_DDOT></tleParameters></data></segment></body></omm>
<omm id="CCSDS_OMM_VERS" version="2.0">
<header><CREATION_DATE/><ORIGINATOR/></header><body><segment><metadata><OBJECT_NAME>KUIPER-00107</OBJECT_NAME><OBJECT_ID>2025-171P</OBJECT_ID><CENTER_NAME>EARTH</CENTER_NAME><REF_FRAME>TEME</REF_FRAME><TIME_SYSTEM>UTC</TIME_SYSTEM><MEAN_ELEMENT_THEORY>SGP4</MEAN_ELEMENT_THEORY></metadata><data><meanElements><EPOCH>2025-09-26T01:39:21.777120</EPOCH><MEAN_MOTION>15.36600849</MEAN_MOTION><ECCENTRICITY>.00041172</ECCENTRICITY><INCLINATION>51.8753</INCLINATION><RA_OF_ASC_NODE>184.9657</RA_OF_ASC_NODE><ARG_OF_PERICENTER>300.2368</ARG_OF_PERICENTER><MEAN_ANOMALY>59.8211</MEAN_ANOMALY></meanElements><tleParameters><EPHEMERIS_TYPE>0</EPHEMERIS_TYPE><CLASSIFICATION_TYPE>U</CLASSIFICATION_TYPE><NORAD_CAT_ID>65145</NORAD_CAT_ID><ELEMENT_SET_NO>999</ELEMENT_SET_NO><REV_AT_EPOCH>825</REV_AT_EPOCH><BSTAR>.75655504E-3</BSTAR><MEAN_MOTION_DOT>.2717E-3</MEAN_MOTION_DOT><MEAN_MOTION_DDOT>0</MEAN_MOTION_DDOT></tleParameters></data></segment></body></omm>
<omm id="CCSDS_OMM_VERS" version="2.0">
<header><CREATION_DATE/><ORIGINATOR/></header><body><segment><metadata><OBJECT_NAME>KUIPER-00108</OBJECT_NAME><OBJECT_ID>2025-171Q</OBJECT_ID><CENTER_NAME>EARTH</CENTER_NAME><REF_FRAME>TEME</REF_FRAME><TIME_SYSTEM>UTC</TIME_SYSTEM><MEAN_ELEMENT_THEORY>SGP4</MEAN_ELEMENT_THEORY></metadata><data><meanElements><EPOCH>2025-09-26T00:23:40.365888</EPOCH><MEAN_MOTION>15.36207811</MEAN_MOTION><ECCENTRICITY>.0004194</ECCENTRICITY><INCLINATION>51.8778</INCLINATION><RA_OF_ASC_NODE>185.3620</RA_OF_ASC_NODE><ARG_OF_PERICENTER>318.3568</ARG_OF_PERICENTER><MEAN_ANOMALY>41.7099</MEAN_ANOMALY></meanElements><tleParameters><EPHEMERIS_TYPE>0</EPHEMERIS_TYPE><CLASSIFICATION_TYPE>U</CLASSIFICATION_TYPE><NORAD_CAT_ID>65146</NORAD_CAT_ID><ELEMENT_SET_NO>999</ELEMENT_SET_NO><REV_AT_EPOCH>824</REV_AT_EPOCH><BSTAR>.89074305E-3</BSTAR><MEAN_MOTION_DOT>.31671E-3</MEAN_MOTION_DOT><MEAN_MOTION_DDOT>0</MEAN_MOTION_DDOT></tleParameters></data></segment></body></omm>
<omm id="CCSDS_OMM_VERS" version="2.0">
<header><CREATION_DATE/><ORIGINATOR/></header><body><segment><metadata><OBJECT_NAME>KUIPER-00109</OBJECT_NAME><OBJECT_ID>2025-171R</OBJECT_ID><CENTER_NAME>EARTH</CENTER_NAME><REF_FRAME>TEME</REF_FRAME><TIME_SYSTEM>UTC</TIME_SYSTEM><MEAN_ELEMENT_THEORY>SGP4</MEAN_ELEMENT_THEORY></metadata><data><meanElements><EPOCH>2025-09-26T04:38:48.972768</EPOCH><MEAN_MOTION>15.36909492</MEAN_MOTION><ECCENTRICITY>.00045817</ECCENTRICITY><INCLINATION>51.8751</INCLINATION><RA_OF_ASC_NODE>184.2966</RA_OF_ASC_NODE><ARG_OF_PERICENTER>295.7597</ARG_OF_PERICENTER><MEAN_ANOMALY>64.2916</MEAN_ANOMALY></meanElements><tleParameters><EPHEMERIS_TYPE>0</EPHEMERIS_TYPE><CLASSIFICATION_TYPE>U</CLASSIFICATION_TYPE><NORAD_CAT_ID>65147</NORAD_CAT_ID><ELEMENT_SET_NO>999</ELEMENT_SET_NO><REV_AT_EPOCH>826</REV_AT_EPOCH><BSTAR>.23578481E-2</BSTAR><MEAN_MOTION_DOT>.8705E-3</MEAN_MOTION_DOT><MEAN_MOTION_DDOT>0</MEAN_MOTION_DDOT></tleParameters></data></segment></body></omm>
<omm id="CCSDS_OMM_VERS" version="2.0">
<header><CREATION_DATE/><ORIGINATOR/></header><body><segment><metadata><OBJECT_NAME>KUIPER-00110</OBJECT_NAME><OBJECT_ID>2025-171S</OBJECT_ID><CENTER_NAME>EARTH</CENTER_NAME><REF_FRAME>TEME</REF_FRAME><TIME_SYSTEM>UTC</TIME_SYSTEM><MEAN_ELEMENT_THEORY>SGP4</MEAN_ELEMENT_THEORY></metadata><data><meanElements><EPOCH>2025-09-26T06:00:02.999808</EPOCH><MEAN_MOTION>15.29889112</MEAN_MOTION><ECCENTRICITY>.00053914</ECCENTRICITY><INCLINATION>51.8781</INCLINATION><RA_OF_ASC_NODE>184.1928</RA_OF_ASC_NODE><ARG_OF_PERICENTER>306.9302</ARG_OF_PERICENTER><MEAN_ANOMALY>270.9794</MEAN_ANOMALY></meanElements><tleParameters><EPHEMERIS_TYPE>0</EPHEMERIS_TYPE><CLASSIFICATION_TYPE>U</CLASSIFICATION_TYPE><NORAD_CAT_ID>65148</NORAD_CAT_ID><ELEMENT_SET_NO>999</ELEMENT_SET_NO><REV_AT_EPOCH>568</REV_AT_EPOCH><BSTAR>-.93527097E-2</BSTAR><MEAN_MOTION_DOT>-.265592E-2</MEAN_MOTION_DOT><MEAN_MOTION_DDOT>0</MEAN_MOTION_DDOT></tleParameters></data></segment></body></omm>
<omm id="CCSDS_OMM_VERS" version="2.0">
<header><CREATION_DATE/><ORIGINATOR/></header><body><segment><metadata><OBJECT_NAME>KUIPER-00111</OBJECT_NAME><OBJECT_ID>2025-171T</OBJECT_ID><CENTER_NAME>EARTH</CENTER_NAME><REF_FRAME>TEME</REF_FRAME><TIME_SYSTEM>UTC</TIME_SYSTEM><MEAN_ELEMENT_THEORY>SGP4</MEAN_ELEMENT_THEORY></metadata><data><meanElements><EPOCH>2025-09-26T06:00:02.999808</EPOCH><MEAN_MOTION>15.20357587</MEAN_MOTION><ECCENTRICITY>.00050685</ECCENTRICITY><INCLINATION>51.8824</INCLINATION><RA_OF_ASC_NODE>185.0852</RA_OF_ASC_NODE><ARG_OF_PERICENTER>305.6968</ARG_OF_PERICENTER><MEAN_ANOMALY>218.4915</MEAN_ANOMALY></meanElements><tleParameters><EPHEMERIS_TYPE>0</EPHEMERIS_TYPE><CLASSIFICATION_TYPE>U</CLASSIFICATION_TYPE><NORAD_CAT_ID>65149</NORAD_CAT_ID><ELEMENT_SET_NO>999</ELEMENT_SET_NO><REV_AT_EPOCH>499</REV_AT_EPOCH><BSTAR>-.24256241E-1</BSTAR><MEAN_MOTION_DOT>-.500497E-2</MEAN_MOTION_DOT><MEAN_MOTION_DDOT>0</MEAN_MOTION_DDOT></tleParameters></data></segment></body></omm>

</ndm>
