KUIPER-00104            
1 65142U 25171L   25269.07248709  .00029983  00000+0  83716-3 0  9993
2 65142  51.8759 184.9897 0003328 302.7060  57.3605 15.36464874  8243
KUIPER-00105            
1 65143U 25171M   25269.25003472 -.00273658  00000+0 -81372-2 0  9997
2 65143  51.8755 183.9465 0004647 279.7661  67.6680 15.35292804  5284
KUIPER-00106            
1 65144U 25171N   25269.25003472 -.00367281  00000+0 -15453-1 0  9990
2 65144  51.8791 184.5551 0005713 285.1728  97.8002 15.24505873  4652
KUIPER-00107            
1 65145U 25171P   25269.06900205  .00027170  00000+0  75656-3 0  9991
2 65145  51.8753 184.9657 0004117 300.2368  59.8211 15.36600849  8250
KUIPER-00108            
1 65146U 25171Q   25269.01643942  .00031671  00000+0  89074-3 0  9999
2 65146  51.8778 185.3620 0004194 318.3568  41.7099 15.36207811  8245
KUIPER-00109            
1 65147U 25171R   25269.19362237  .00087050  00000+0  23578-2 0  9992
2 65147  51.8751 184.2966 0004581 295.7597  64.2916 15.36909492  8262
KUIPER-00110            
1 65148U 25171S   25269.25003472 -.00265592  00000+0 -93527-2 0  9995
2 65148  51.8781 184.1928 0005391 306.9302 270.9794 15.29889112  5683
KUIPER-00111            
1 65149U 25171T   25269.25003472 -.00500497  00000+0 -24256-1 0  9994
2 65149  51.8824 185.0852 0005068 305.6968 218.4915 15.20357587  4995
